start=new Date('2022-06-29T00:00:00.000Z').valueOf();
sats=[{"REV_AT_EPOCH":"2490","APOAPSIS":"541.116","COUNTRY_CODE":"US","DECAY_DATE":null,"NORAD_CAT_ID":"51150","BSTAR":"-0.00006567600000","PERIOD":"95.438","GP_ID":"207033274","TLE_LINE2":"2 51150  53.2185 240.5304 0001956  56.4625 303.6553 15.08834378 24902","SEMIMAJOR_AXIS":"6917.898","LAUNCH_DATE":"2022-01-19","OBJECT_TYPE":"PAYLOAD","TLE_LINE1":"1 51150U 22005AY  22179.46050728 -.00001333  00000-0 -65676-4 0  9990","MEAN_ANOMALY":"303.6553","RCS_SIZE":"LARGE","OBJECT_NAME":"STARLINK-3357","INCLINATION":"53.2185","ECCENTRICITY":"0.00019560","EPOCH":"2022-06-28T11:03:07.828992","MEAN_MOTION":"15.08834378","MEAN_ELEMENT_THEORY":"SGP4","EPHEMERIS_TYPE":"0","REF_FRAME":"TEME","PERIAPSIS":"538.409","MEAN_MOTION_DOT":"-0.00001333","RA_OF_ASC_NODE":"240.5304","SITE":"AFETR","ELEMENT_SET_NO":"999","TIME_SYSTEM":"UTC","CLASSIFICATION_TYPE":"U","CENTER_NAME":"EARTH","MEAN_MOTION_DDOT":"0.0000000000000","FILE":"3504789","OBJECT_ID":"2022-005AY","ARG_OF_PERICENTER":"56.4625"},{"REF_FRAME":"TEME","PERIAPSIS":"538.457","EPHEMERIS_TYPE":"0","MEAN_MOTION":"15.08834066","MEAN_ELEMENT_THEORY":"SGP4","EPOCH":"2022-06-28T13:30:10.484640","ECCENTRICITY":"0.00018890","ARG_OF_PERICENTER":"44.3406","OBJECT_ID":"2022-005AZ","FILE":"3504942","MEAN_MOTION_DDOT":"0.0000000000000","CLASSIFICATION_TYPE":"U","CENTER_NAME":"EARTH","TIME_SYSTEM":"UTC","ELEMENT_SET_NO":"999","SITE":"AFETR","RA_OF_ASC_NODE":"250.0684","MEAN_MOTION_DOT":"0.00000079","PERIOD":"95.438","BSTAR":"0.00002308300000","NORAD_CAT_ID":"51151","DECAY_DATE":null,"COUNTRY_CODE":"US","APOAPSIS":"541.070","REV_AT_EPOCH":"2477","INCLINATION":"53.2155","OBJECT_NAME":"STARLINK-3361","RCS_SIZE":"LARGE","MEAN_ANOMALY":"315.7737","TLE_LINE1":"1 51151U 22005AZ  22179.56262135  .00000079  00000-0  23083-4 0  9999","OBJECT_TYPE":"PAYLOAD","LAUNCH_DATE":"2022-01-19","TLE_LINE2":"2 51151  53.2155 250.0684 0001889  44.3406 315.7737 15.08834066 24772","SEMIMAJOR_AXIS":"6917.899","GP_ID":"207060634"},{"INCLINATION":"53.2166","TLE_LINE2":"2 51152  53.2166 250.6518 0001904  44.1231 315.9912 15.08824165 24753","SEMIMAJOR_AXIS":"6917.929","GP_ID":"207032273","OBJECT_TYPE":"PAYLOAD","TLE_LINE1":"1 51152U 22005BA  22179.43382655 -.00000136  00000-0  95820-5 0  9990","LAUNCH_DATE":"2022-01-19","MEAN_ANOMALY":"315.9912","OBJECT_NAME":"STARLINK-3364","RCS_SIZE":"LARGE","DECAY_DATE":null,"COUNTRY_CODE":"US","BSTAR":"0.00000958200000","NORAD_CAT_ID":"51152","PERIOD":"95.439","APOAPSIS":"541.111","REV_AT_EPOCH":"2475","MEAN_MOTION_DDOT":"0.0000000000000","CLASSIFICATION_TYPE":"U","CENTER_NAME":"EARTH","OBJECT_ID":"2022-005BA","FILE":"3504789","ARG_OF_PERICENTER":"44.1231","SITE":"AFETR","RA_OF_ASC_NODE":"250.6518","MEAN_MOTION_DOT":"-0.00000136","ELEMENT_SET_NO":"999","TIME_SYSTEM":"UTC","MEAN_ELEMENT_THEORY":"SGP4","MEAN_MOTION":"15.08824165","EPHEMERIS_TYPE":"0","PERIAPSIS":"538.477","REF_FRAME":"TEME","ECCENTRICITY":"0.00019040","EPOCH":"2022-06-28T10:24:42.613920"},{"EPHEMERIS_TYPE":"0","MEAN_ELEMENT_THEORY":"SGP4","MEAN_MOTION":"15.08836656","REF_FRAME":"TEME","PERIAPSIS":"538.306","EPOCH":"2022-06-28T12:19:56.897472","ECCENTRICITY":"0.00020950","OBJECT_ID":"2022-010E","FILE":"3504789","MEAN_MOTION_DDOT":"0.0000000000000","CENTER_NAME":"EARTH","CLASSIFICATION_TYPE":"U","ARG_OF_PERICENTER":"44.8815","RA_OF_ASC_NODE":"220.2882","SITE":"AFETR","MEAN_MOTION_DOT":"-0.00000436","TIME_SYSTEM":"UTC","ELEMENT_SET_NO":"999","BSTAR":"-0.00000926690000","NORAD_CAT_ID":"51460","DECAY_DATE":null,"COUNTRY_CODE":"US","PERIOD":"95.438","APOAPSIS":"541.205","REV_AT_EPOCH":"2299","INCLINATION":"53.2174","OBJECT_TYPE":"PAYLOAD","TLE_LINE1":"1 51460U 22010E   22179.51385298 -.00000436  00000-0 -92669-5 0  9995","LAUNCH_DATE":"2022-02-03","TLE_LINE2":"2 51460  53.2174 220.2882 0002095  44.8815 315.2346 15.08836656 22994","SEMIMAJOR_AXIS":"6917.891","GP_ID":"207034037","OBJECT_NAME":"STARLINK-3167","RCS_SIZE":"LARGE","MEAN_ANOMALY":"315.2346"},{"ARG_OF_PERICENTER":"45.9970","CENTER_NAME":"EARTH","CLASSIFICATION_TYPE":"U","MEAN_MOTION_DDOT":"0.0000000000000","FILE":"3504789","OBJECT_ID":"2022-010F","ELEMENT_SET_NO":"999","TIME_SYSTEM":"UTC","MEAN_MOTION_DOT":"-0.00002242","RA_OF_ASC_NODE":"220.2120","SITE":"AFETR","PERIAPSIS":"538.255","REF_FRAME":"TEME","MEAN_MOTION":"15.08830556","MEAN_ELEMENT_THEORY":"SGP4","EPHEMERIS_TYPE":"0","ECCENTRICITY":"0.00021960","EPOCH":"2022-06-28T12:46:27.923232","INCLINATION":"53.2178","MEAN_ANOMALY":"314.1203","RCS_SIZE":"LARGE","OBJECT_NAME":"STARLINK-3181","GP_ID":"207032286","TLE_LINE2":"2 51461  53.2178 220.2120 0002196  45.9970 314.1203 15.08830556 22993","SEMIMAJOR_AXIS":"6917.909","LAUNCH_DATE":"2022-02-03","OBJECT_TYPE":"PAYLOAD","TLE_LINE1":"1 51461U 22010F   22179.53226763 -.00002242  00000-0 -12285-3 0  9990","PERIOD":"95.438","COUNTRY_CODE":"US","DECAY_DATE":null,"NORAD_CAT_ID":"51461","BSTAR":"-0.00012285000000","REV_AT_EPOCH":"2299","APOAPSIS":"541.293"},{"ELEMENT_SET_NO":"999","TIME_SYSTEM":"UTC","RA_OF_ASC_NODE":"220.2291","SITE":"AFETR","MEAN_MOTION_DOT":"-0.00000021","ARG_OF_PERICENTER":"36.2266","MEAN_MOTION_DDOT":"0.0000000000000","CLASSIFICATION_TYPE":"U","CENTER_NAME":"EARTH","OBJECT_ID":"2022-010G","FILE":"3504789","ECCENTRICITY":"0.00023040","EPOCH":"2022-06-28T12:41:09.239424","REF_FRAME":"TEME","PERIAPSIS":"538.175","MEAN_ELEMENT_THEORY":"SGP4","MEAN_MOTION":"15.08832270","EPHEMERIS_TYPE":"0","MEAN_ANOMALY":"323.8882","OBJECT_NAME":"STARLINK-3166","RCS_SIZE":"LARGE","SEMIMAJOR_AXIS":"6917.904","TLE_LINE2":"2 51462  53.2181 220.2291 0002304  36.2266 323.8882 15.08832270 22994","GP_ID":"207032536","TLE_LINE1":"1 51462U 22010G   22179.52857916 -.00000021  00000-0  16794-4 0  9992","OBJECT_TYPE":"PAYLOAD","LAUNCH_DATE":"2022-02-03","INCLINATION":"53.2181","APOAPSIS":"541.363","REV_AT_EPOCH":"2299","PERIOD":"95.438","DECAY_DATE":null,"COUNTRY_CODE":"US","BSTAR":"0.00001679400000","NORAD_CAT_ID":"51462"},{"CENTER_NAME":"EARTH","CLASSIFICATION_TYPE":"U","MEAN_MOTION_DDOT":"0.0000000000000","FILE":"3504789","OBJECT_ID":"2022-010H","ARG_OF_PERICENTER":"51.7739","MEAN_MOTION_DOT":"0.00000880","SITE":"AFETR","RA_OF_ASC_NODE":"220.3369","ELEMENT_SET_NO":"999","TIME_SYSTEM":"UTC","MEAN_MOTION":"15.08833428","MEAN_ELEMENT_THEORY":"SGP4","EPHEMERIS_TYPE":"0","PERIAPSIS":"538.342","REF_FRAME":"TEME","ECCENTRICITY":"0.00020570","EPOCH":"2022-06-28T12:04:03.743904","INCLINATION":"53.2174","GP_ID":"207033787","TLE_LINE2":"2 51463  53.2174 220.3369 0002057  51.7739 308.3438 15.08833428 22683","SEMIMAJOR_AXIS":"6917.900","LAUNCH_DATE":"2022-02-03","TLE_LINE1":"1 51463U 22010H   22179.50282111  .00000880  00000-0  73387-4 0  9993","OBJECT_TYPE":"PAYLOAD","MEAN_ANOMALY":"308.3438","RCS_SIZE":"LARGE","OBJECT_NAME":"STARLINK-3419","COUNTRY_CODE":"US","DECAY_DATE":null,"NORAD_CAT_ID":"51463","BSTAR":"0.00007338700000","PERIOD":"95.438","REV_AT_EPOCH":"2268","APOAPSIS":"541.188"},{"ECCENTRICITY":"0.00022090","EPOCH":"2022-06-28T09:19:47.561952","MEAN_MOTION":"15.08831039","MEAN_ELEMENT_THEORY":"SGP4","EPHEMERIS_TYPE":"0","REF_FRAME":"TEME","PERIAPSIS":"538.245","SITE":"AFETR","RA_OF_ASC_NODE":"220.8517","MEAN_MOTION_DOT":"-0.00002267","ELEMENT_SET_NO":"999","TIME_SYSTEM":"UTC","MEAN_MOTION_DDOT":"0.0000000000000","CENTER_NAME":"EARTH","CLASSIFICATION_TYPE":"U","OBJECT_ID":"2022-010J","FILE":"3504789","ARG_OF_PERICENTER":"49.6325","APOAPSIS":"541.301","REV_AT_EPOCH":"2347","DECAY_DATE":null,"COUNTRY_CODE":"US","BSTAR":"-0.00012439000000","NORAD_CAT_ID":"51464","PERIOD":"95.438","TLE_LINE2":"2 51464  53.2177 220.8517 0002209  49.6325 310.4860 15.08831039 23470","SEMIMAJOR_AXIS":"6917.908","GP_ID":"207033538","OBJECT_TYPE":"PAYLOAD","TLE_LINE1":"1 51464U 22010J   22179.38874493 -.00002267  00000-0 -12439-3 0  9993","LAUNCH_DATE":"2022-02-03","MEAN_ANOMALY":"310.4860","OBJECT_NAME":"STARLINK-3189","RCS_SIZE":"LARGE","INCLINATION":"53.2177"},{"ECCENTRICITY":"0.00019910","EPOCH":"2022-06-28T12:25:15.640896","MEAN_MOTION":"15.08829586","MEAN_ELEMENT_THEORY":"SGP4","EPHEMERIS_TYPE":"0","PERIAPSIS":"538.400","REF_FRAME":"TEME","RA_OF_ASC_NODE":"220.2718","SITE":"AFETR","MEAN_MOTION_DOT":"-0.00001859","ELEMENT_SET_NO":"999","TIME_SYSTEM":"UTC","MEAN_MOTION_DDOT":"0.0000000000000","CENTER_NAME":"EARTH","CLASSIFICATION_TYPE":"U","OBJECT_ID":"2022-010K","FILE":"3504789","ARG_OF_PERICENTER":"54.7635","APOAPSIS":"541.155","REV_AT_EPOCH":"2349","DECAY_DATE":null,"COUNTRY_CODE":"US","BSTAR":"-0.00009875600000","NORAD_CAT_ID":"51465","PERIOD":"95.438","SEMIMAJOR_AXIS":"6917.912","TLE_LINE2":"2 51465  53.2185 220.2718 0001991  54.7635 305.3543 15.08829586 23492","GP_ID":"207032786","OBJECT_TYPE":"PAYLOAD","TLE_LINE1":"1 51465U 22010K   22179.51754214 -.00001859  00000-0 -98756-4 0  9990","LAUNCH_DATE":"2022-02-03","MEAN_ANOMALY":"305.3543","OBJECT_NAME":"STARLINK-3401","RCS_SIZE":"LARGE","INCLINATION":"53.2185"},{"PERIAPSIS":"538.081","REF_FRAME":"TEME","MEAN_MOTION":"15.08826554","MEAN_ELEMENT_THEORY":"SGP4","EPHEMERIS_TYPE":"0","ECCENTRICITY":"0.00024650","EPOCH":"2022-06-28T11:58:46.318080","ARG_OF_PERICENTER":"33.1816","CLASSIFICATION_TYPE":"U","CENTER_NAME":"EARTH","MEAN_MOTION_DDOT":"0.0000000000000","FILE":"3504789","OBJECT_ID":"2022-010M","ELEMENT_SET_NO":"999","TIME_SYSTEM":"UTC","MEAN_MOTION_DOT":"-0.00000250","RA_OF_ASC_NODE":"220.3659","SITE":"AFETR","PERIOD":"95.438","COUNTRY_CODE":"US","DECAY_DATE":null,"NORAD_CAT_ID":"51467","BSTAR":"0.00000238210000","REV_AT_EPOCH":"2268","APOAPSIS":"541.492","INCLINATION":"53.2164","MEAN_ANOMALY":"326.9331","RCS_SIZE":"LARGE","OBJECT_NAME":"STARLINK-3178","GP_ID":"207033036","TLE_LINE2":"2 51467  53.2164 220.3659 0002465  33.1816 326.9331 15.08826554 22681","SEMIMAJOR_AXIS":"6917.921","LAUNCH_DATE":"2022-02-03","TLE_LINE1":"1 51467U 22010M   22179.49914720 -.00000250  00000-0  23821-5 0  9994","OBJECT_TYPE":"PAYLOAD"}];
